[{"OBJECT_NAME":"ONEWEB-0037","OBJECT_ID":"2020-020S","EPOCH":"2026-03-09T22:16:05.643840","MEAN_MOTION":13.11414209,"ECCENTRICITY":0.00018309,"INCLINATION":87.8874,"RA_OF_ASC_NODE":40.7657,"ARG_OF_PERICENTER":80.1673,"MEAN_ANOMALY":279.9662,"EPHEMERIS_TYPE":0,"CLASSIFICATION_TYPE":"U","NORAD_CAT_ID":45440,"ELEMENT_SET_NO":999,"REV_AT_EPOCH":28968,"BSTAR":-0.00013585075,"MEAN_MOTION_DOT":-3.5e-7,"MEAN_MOTION_DDOT":0},{"OBJECT_NAME":"FENGYUN 1C DEB","OBJECT_ID":"1999-025CMB","EPOCH":"2026-03-09T08:25:07.067136","MEAN_MOTION":13.64226756,"ECCENTRICITY":0.02742482,"INCLINATION":98.4051,"RA_OF_ASC_NODE":219.1122,"ARG_OF_PERICENTER":226.8484,"MEAN_ANOMALY":130.9442,"EPHEMERIS_TYPE":0,"CLASSIFICATION_TYPE":"U","NORAD_CAT_ID":31924,"ELEMENT_SET_NO":999,"REV_AT_EPOCH":92648,"BSTAR":0.0027064746,"MEAN_MOTION_DOT":2.754e-5,"MEAN_MOTION_DDOT":0}]
